YAOGAN-35 03B           
1 53318U 22088C   26068.54399603  .00010651  00000+0  44045-3 0  9993
2 53318  34.9880 116.4068 0013847 202.6301 157.3803 15.23107662201134
STARLINK-31423          
1 59242U 24049M   26068.56228279 -.00001515  00000+0 -45549-4 0  9998
2 59242  43.0005 144.5037 0001346 254.2471 105.8232 15.27583183112388
